#aV2016  1  9  0  0  0.00000000     288 DD+AD WGS84 FIT  NGA
## 1878 518400.00000000   300.00000000 57396 0.0000000000000
+   31     1  2  3  5  6  7  8  9 10 11 12 13 14 15 16 17 18
+         19 20 21 22 23 24 25 26 27 28 29 30 31 32  0  0  0
+          0  0  0  0  0  0  0  0  0  0  0  0  0  0  0  0  0
+          0  0  0  0  0  0  0  0  0  0  0  0  0  0  0  0  0
+          0  0  0  0  0  0  0  0  0  0  0  0  0  0  0  0  0
++         2  2  2  2  2  2  2  2  2  2  2  2  2  2  2  2  2
++         2  2  2  2  2  2  2  2  2  2  2  2  2  2  0  0  0
++         0  0  0  0  0  0  0  0  0  0  0  0  0  0  0  0  0
++         0  0  0  0  0  0  0  0  0  0  0  0  0  0  0  0  0
++         0  0  0  0  0  0  0  0  0  0  0  0  0  0  0  0  0
%c cc cc ccc ccc cccc cccc cccc cccc ccccc ccccc ccccc ccccc
%c cc cc ccc ccc cccc cccc cccc cccc ccccc ccccc ccccc ccccc
%f  0.0000000  0.000000000  0.00000000000  0.000000000000000
%f  0.0000000  0.000000000  0.00000000000  0.000000000000000
%i    0    0    0    0      0      0      0      0         0
%i    0    0    0    0      0      0      0      0         0
/*      NGA, ST. LOUIS,MO.                                  
/*   EPHEMERIS COMPUTED FROM 2 DAYS OF DATA                 
/*   EPOCHA v2.4 SMOOTHER                                   
/*   G1762 IERS2010 SATAF SATAPC                            
*  2016  1  9  5 10  0.00000000
P  1  13924.788778 -22112.635525   3992.414894      8.682712                    
V  1    288.875514   5921.804490  31419.983498      0.009427                    
P  2 -16954.822553   3038.940563 -19698.446734    598.986852                    
V  2   9057.248244 -24521.038525 -11767.445194      0.003734                    
P  3  16670.061331 -12721.710538 -16314.635602     -9.083251                    
V  3  20792.803115    358.523221  20953.382243     -0.050690                    
P  5 -26589.727328   2033.598621   -289.821728   -157.128493                    
V  5     19.713704  -3136.091750 -31290.277475      0.035541                    
P  6 -11073.854355 -11228.305434 -21367.876253    126.101145                    
V  6  12224.940581 -24228.113827   6384.338077      0.062628                    
P  7   3585.706546 -23723.042145  11083.969008    474.445215                    
V  7   8595.641345 -11333.032177 -27733.749827     -0.014382                    
P  8  13399.834926  -7326.773652  21785.339006    -19.342883                    
V  8  15481.368666  22762.123322  -1866.128597     -0.013992                    
P  9  -5484.623526 -23005.647351 -12096.240560     46.090683                    
V  9  10752.298090  11227.254971 -26273.119882      0.079137                    
P 10  15845.323346  11435.607737  18016.081417     49.235617                    
V 10 -22659.702709   3366.094741  17750.724927      0.008944                    
P 11  11204.322779 -20732.012631  11642.776909   -626.232550                    
V 11   2765.112269  16122.773523  24944.758000     -0.020362                    
P 12 -19591.719410  10144.593781 -14729.951843    359.597592                    
V 12 -18581.563020  -1075.224244  24361.125535      0.027891                    
P 13 -16864.866120  -2440.811406  20212.031311   -177.175110                    
V 13 -11217.504037 -23434.784586 -12197.507614     -0.026276                    
P 14  14771.059764  21974.793238  -2693.110389     10.338623                    
V 14   -380.782849   4494.288556  31505.374436     -0.023400                    
P 15 -11483.417493  10912.060363  21185.011179   -291.339285                    
V 15 -16916.868113 -21447.414820   2211.390279     -0.018793                    
P 16  26765.228726    266.253600   -629.172809    -49.965588                    
V 16   -678.764930   1548.409023 -32130.116598      0.033224                    
P 17 -14899.673277 -22033.417817  -1655.925923   -198.419557                    
V 17    577.151758  -3267.591491  31842.707548     -0.007116                    
P 18   3732.341540  15901.541547  21474.881464    471.169023                    
V 18 -26062.908542   2826.462533   2221.048851      0.039179                    
P 19 -13429.157186 -22638.341028  -1238.909233   -524.320918                    
V 19   1815.672999  -2502.166550  32227.947534     -0.002255                    
P 20 -18702.849009  13131.491925  13426.120605    384.393724                    
V 20 -17639.753085   -327.204669 -23903.246496      0.027225                    
P 21   1153.895038  22725.682356  14176.084028   -504.213251                    
V 21  -9508.069429  14331.032225 -23717.072961     -0.020682                    
P 22  23059.840960   6647.851773  11810.608333    413.347569                    
V 22 -14274.753699   4625.351943  25596.942919     -0.040766                    
P 23   5488.719631 -16861.285756 -19470.591333   -154.008107                    
V 23  15550.616949  19989.198377 -13243.634365     -0.019302                    
P 24 -14905.074165  20723.446421   6934.373990    -10.473932                    
V 24    873.330869  -9406.266312  29987.800703     -0.005335                    
P 25  -6264.981866  14783.786394 -21221.546911    -96.457281                    
V 25 -26680.638578   1268.190706   8978.676627     -0.063254                    
P 26  23749.421920   5512.726357 -10570.779062   -202.982261                    
V 26 -13181.803147   3520.654154 -27732.725392     -0.168035                    
P 27  18319.146907   3822.587656  18881.532926     51.753530                    
V 27  12549.036188  20430.391411 -16155.121453      0.034171                    
P 28 -14505.706632 -12521.974988  19053.820409    494.061684                    
V 28  22785.732171   -828.846145  17334.346662      0.027036                    
P 29   2018.548080  22224.986538 -14413.298717    651.111862                    
V 29 -10941.291019 -14756.740649 -24219.064198      0.011582                    
P 30  -4564.341678 -18455.788161  18511.519961     81.971391                    
V 30  13102.157374 -19649.377588 -16434.220517      0.048450                    
P 31  11866.112455   9246.160151 -21744.171134    287.822199                    
V 31 -13302.179951  24516.213732   3499.795135     -0.016167                    
P 32  24491.114498  -5537.935408  -7849.378311     74.788724                    
V 32  10015.900470   3524.713183  29577.242051      0.125879                    
EOF
